[{"OBJECT_NAME":"TIANMU-1 19","OBJECT_ID":"2023-208A","EPOCH":"2026-03-09T22:13:36.801696","MEAN_MOTION":15.2984143,"ECCENTRICITY":0.00039292,"INCLINATION":97.4383,"RA_OF_ASC_NODE":184.9132,"ARG_OF_PERICENTER":316.2611,"MEAN_ANOMALY":43.8317,"EPHEMERIS_TYPE":0,"CLASSIFICATION_TYPE":"U","NORAD_CAT_ID":58660,"ELEMENT_SET_NO":999,"REV_AT_EPOCH":12214,"BSTAR":0.00040995676,"MEAN_MOTION_DOT":0.00011779,"MEAN_MOTION_DDOT":0},{"OBJECT_NAME":"STARLINK-31406","OBJECT_ID":"2024-036V","EPOCH":"2026-03-09T09:28:19.152768","MEAN_MOTION":15.30195857,"ECCENTRICITY":0.0001213,"INCLINATION":53.1595,"RA_OF_ASC_NODE":66.3225,"ARG_OF_PERICENTER":92.8597,"MEAN_ANOMALY":267.2543,"EPHEMERIS_TYPE":0,"CLASSIFICATION_TYPE":"U","NORAD_CAT_ID":59017,"ELEMENT_SET_NO":999,"REV_AT_EPOCH":11546,"BSTAR":-6.4127324e-5,"MEAN_MOTION_DOT":-2.258e-5,"MEAN_MOTION_DDOT":0}]
